QIANFAN-17              
1 60395U 24140S   25224.37869851  .00000139  00000+0  19590-3 0  9995
2 60395  88.9852 312.0731 0014961 191.2451 168.8368 13.50963356 50765
QIANFAN-18              
1 60396U 24140T   25224.35823519  .00000140  00000+0  19843-3 0  9998
2 60396  88.9844 311.6183 0014939 174.1065 186.0265 13.50965263 50991
QIANFAN-19              
1 61552U 24185A   25223.89377403  .00000311  00000+0  15613-3 0  9997
2 61552  88.9791  92.0379 0006972 358.8785   1.2385 14.14122417 52307
QIANFAN-20              
1 61553U 24185B   25223.94860694  .00000311  00000+0  17264-3 0  9997
2 61553  88.9790  92.2315 0007437  33.6180 326.5474 14.08673362 52207
QIANFAN-21              
1 61554U 24185C   25223.92891181  .00000557  00000+0  24360-3 0  9998
2 61554  88.9705  91.3840 0012667  49.6777 310.5519 14.22372550 52515
QIANFAN-22              
1 61555U 24185D   25224.15521502  .00000269  00000+0  22176-3 0  9995
2 61555  88.9776  92.6959 0007760  25.1838 334.9710 13.86240626 51962
QIANFAN-23              
1 61556U 24185E   25223.90024280  .00000425  00000+0  20787-3 0  9999
2 61556  88.9784  91.9037 0008297   8.9297 351.2037 14.16094640 52361
QIANFAN-24              
1 61557U 24185F   25223.89475487  .00000480  00000+0  20438-3 0  9991
2 61557  88.9765  91.5105 0009369 353.9093   6.1983 14.23573654 52542
